H1 CPF 01  gfz 2022 04 22 12  6122 tandemx   
H2 1003001  6202 36605    2022 04 22 12 59 42 2022 04 27 00 00 42   120 1 1  0 0 0
H9
10 0 59695  82062.000000  0   -2320495.922   5641164.725   3192368.827
10 0 59695  82182.000000  0   -2283535.182   6049950.444   2366720.734
10 0 59695  82302.000000  0   -2200426.568   6351890.954   1499389.450
10 0 59695  82422.000000  0   -2074549.975   6540938.452    605651.766
10 0 59695  82542.000000  0   -1910127.119   6613107.542   -298750.625
10 0 59695  82662.000000  0   -1712109.750   6566560.951  -1197896.875
10 0 59695  82782.000000  0   -1486052.328   6401651.895  -2075978.839
10 0 59695  82902.000000  0   -1237972.173   6120917.185  -2917588.158
10 0 59695  83022.000000  0    -974202.919   5729028.025  -3707989.401
10 0 59695  83142.000000  0    -701244.630   5232701.812  -4433378.615
10 0 59695  83262.000000  0    -425614.029   4640574.577  -5081121.855
10 0 59695  83382.000000  0    -153697.861   3963039.785  -5639969.051
10 0 59695  83502.000000  0     108387.464   3212056.136  -6100241.478
10 0 59695  83622.000000  0     354926.378   2400928.367  -6453988.601
10 0 59695  83742.000000  0     580721.939   1544068.120  -6695113.155
10 0 59695  83862.000000  0     781200.113    656738.886  -6819466.440
10 0 59695  83982.000000  0     952498.190   -245212.437  -6824911.910
10 0 59695  84102.000000  0    1091536.295  -1145633.259  -6711357.420
10 0 59695  84222.000000  0    1196070.962  -2028346.997  -6480754.861
10 0 59695  84342.000000  0    1264730.783  -2877435.161  -6137070.751
10 0 59695  84462.000000  0    1297033.962  -3677519.521  -5686227.570
10 0 59695  84582.000000  0    1293385.561  -4414040.441  -5136011.685
10 0 59695  84702.000000  0    1255056.546  -5073522.762  -4495949.075
10 0 59695  84822.000000  0    1184143.864  -5643827.657  -3777152.429
10 0 59695  84942.000000  0    1083511.270  -6114385.400  -2992137.302
10 0 59695  85062.000000  0     956713.089  -6476402.256  -2154610.717
10 0 59695  85182.000000  0     807902.215  -6723037.613  -1279234.808
10 0 59695  85302.000000  0     641723.355  -6849545.338   -381368.571
10 0 59695  85422.000000  0     463194.511  -6853374.422    523206.359
10 0 59695  85542.000000  0     277579.774  -6734227.174   1418569.728
10 0 59695  85662.000000  0      90256.510  -6494072.905   2288951.751
10 0 59695  85782.000000  0     -93419.663  -6137115.106   3119021.116
10 0 59695  85902.000000  0    -268248.628  -5669711.294   3894163.631
10 0 59695  86022.000000  0    -429315.100  -5100250.996   4600743.074
10 0 59695  86142.000000  0    -572109.684  -4438996.125   5226343.444
10 0 59695  86262.000000  0    -692638.710  -3697886.209   5759986.468
10 0 59695  86382.000000  0    -787520.922  -2890312.855   6192322.177
99
